{
  "userId": 1,
  "nickname": "ë†êµ¬ê°€í•˜ê³ ì‹¶ì–´ìš”ì„ ìƒë‹˜",
  "latitude": 37.480584,
  "longitude": 126.952281,
  "gu": "ê´€ì•…êµ¬",
  "dong": "ë´‰ì²œë™",
  "gender": "ë‚¨ì„±",
  "introduction": "ë†êµ¬ë¥¼ ì‚¬ë‘í•˜ëŠ” 20ëŒ€ í›„ë°˜ ì§ì¥ì¸ì…ë‹ˆë‹¤. 10ëŒ€ ë•Œ í•œì°½ ì—´ì‹¬íˆ í•˜ë‹¤ ìµœê·¼ì— ë‹¤ì‹œ ì—´ì •ì„ ë¶ˆíƒœìš°ê³  ìˆì–´ìš”ğŸ”¥",
  "preferredExercise": [
    {
      "exerciseName": "ë†êµ¬",
      "skillLevel": "ê³ ê¸‰"
    },
    {
      "exerciseName": "ì¶•êµ¬",
      "skillLevel": "ì¤‘ê¸‰"
    }
  ],
  "participatingPost": [
    {
      "hostName": "sunny",
      "exerciseName": "ì¶•êµ¬",
      "postId": 1,
      "title": "ìš©ì‚°êµ¬ì—ì„œ ê°™ì´ ì¶•êµ¬í•˜ì‹¤ ë¶„~",
      "meetAt": "2021ë…„ 11ì›” 11ì¼ 19:00",
      "placeName": "ìš©ì‚°ê³µì—…ê³ ë“±í•™êµ",
      "status": "ìŠ¹ì¸ ì™„ë£Œ"
    },
    {
      "hostName": "sunny",
      "exerciseName": "ë†êµ¬",
      "postId": 2,
      "title": "í¬ìŠ¤íŠ¸ í…ŒìŠ¤íŠ¸2",
      "meetAt": "2021ë…„ 11ì›” 11ì¼ 19:00",
      "placeName": "ì„œìš¸ëŒ€í•™êµ ëŒ€ìš´ë™ì¥",
      "status": "ìŠ¹ì¸ ëŒ€ê¸° ì¤‘"
    },
    {
      "hostName": "sunny",
      "exerciseName": "ë°°ë“œë¯¼í„´",
      "postId": 3,
      "title": "í¬ìŠ¤íŠ¸ í…ŒìŠ¤íŠ¸3",
      "meetAt": "2021ë…„ 11ì›” 11ì¼ 19:00",
      "placeName": "ìš°ë¦¬ì§‘ ìš´ë™ì¥",
      "status": "DECLINED"
    }
  ],
  "hostingPost": [
    {
      "hostName": "sunny",
      "exerciseName": "íƒêµ¬",
      "postId": 4,
      "title": "í¬ìŠ¤íŠ¸ í…ŒìŠ¤íŠ¸4",
      "meetAt": "2021ë…„ 11ì›” 11ì¼ 19:00",
      "placeName": "ì ì‹¤ì¢…í•©ìš´ë™ì¥",
      "status": "ëª¨ì§‘ ì™„ë£Œ"
    },
    {
      "hostName": "sunny",
      "exerciseName": "ëŸ¬ë‹",
      "postId": 5,
      "title": "í¬ìŠ¤íŠ¸ í…ŒìŠ¤íŠ¸5",
      "meetAt": "2021ë…„ 11ì›” 11ì¼ 19:00",
      "placeName": "ì„œìš¸ëŒ€í•™êµ ëŒ€ìš´ë™ì¥",
      "status": "PENDING"
    },
    {
      "hostName": "sunny",
      "exerciseName": "í…Œë‹ˆìŠ¤",
      "postId": 6,
      "title": "í¬ìŠ¤íŠ¸ í…ŒìŠ¤íŠ¸6",
      "meetAt": "2021ë…„ 11ì›” 11ì¼ 19:00",
      "placeName": "ìš°ë¦¬ì§‘ ìš´ë™ì¥",
      "status": "ACCEPTED"
    },
    {
      "hostName": "sunny",
      "exerciseName": "ë¼ì´ë”©",
      "postId": 7,
      "title": "í¬ìŠ¤íŠ¸ í…ŒìŠ¤íŠ¸6",
      "meetAt": "2021ë…„ 11ì›” 11ì¼ 19:00",
      "placeName": "ìš°ë¦¬ì§‘ ìš´ë™ì¥",
      "status": "RECRUITED"
    },
    {
      "hostName": "sunny",
      "exerciseName": "ë¼ì´ë‹¤",
      "postId": 7,
      "title": "í¬ìŠ¤íŠ¸ í…ŒìŠ¤íŠ¸6",
      "meetAt": "2021ë…„ 11ì›” 11ì¼ 19:00",
      "placeName": "ìš°ë¦¬ì§‘ ìš´ë™ì¥",
      "status": "RECRUITING"
    }
  ]
}
